[Satellite]
VERSION=1.1
NAME=STARLINK-5113
NICKNAME=STARLINK-5113
TLE1=1 53988U 22125AA  22296.91667824 -.00127092  00000+0 -91154-3 0  9994
TLE2=2 53988  53.2194   2.7487 0002789  17.2475 266.4478 15.73278105  1309
STATUS=0
